#cP2020  2  2  0  0  0.00000000      96 u+U   IGS08 FIT SHAO
## 2091      0.00000000   900.00000000 58881 0.0000000000000
+   92   C01C02C03C04C05C06C07C08C09C10C11C12C13C14C16E01E02
+        E03E04E05E07E08E09E11E12E13E14E15E18E19E21E24E25E26
+        E27E30E31E33E36G01G02G03G04G05G06G07G08G09G10G11G12
+        G13G14G15G16G17G18G19G20G21G22G23G24G25G26G27G28G29
+        G30G31G32R01R02R03R04R05R07R08R09R11R12R13R14R15R16
+        R17R18R19R20R21R22R23  0  0  0  0  0  0  0  0  0  0
+          0  0  0  0  0  0  0  0  0  0  0  0  0  0  0  0  0
+          0  0  0  0  0  0  0  0  0  0  0  0  0  0  0  0  0
+          0  0  0  0  0  0  0  0  0  0  0  0  0  0  0  0  0
+          0  0  0  0  0  0  0  0  0  0  0  0  0  0  0  0  0
++         7  8  7  8  7  4  4  4  4  4  8  7  4  4  4  6  6
++         7  7  6  7  7  7  6  7  6  7  7  7  7  7  7  7  7
++         7  6  6  7  7  6  6  6  6  6  6  6  6  6  6  6  6
++         6  6  6  6  6  6  6  6  6  6  6  6  6  6  6  6  6
++         6  6  6  6  5  5  6  6  5  6  6  5  6  6  6  5  6
++         6  6  5  6  6  6  5  0  0  0  0  0  0  0  0  0  0
++         0  0  0  0  0  0  0  0  0  0  0  0  0  0  0  0  0
++         0  0  0  0  0  0  0  0  0  0  0  0  0  0  0  0  0
++         0  0  0  0  0  0  0  0  0  0  0  0  0  0  0  0  0
++         0  0  0  0  0  0  0  0  0  0  0  0  0  0  0  0  0
%c M  cc GPS ccc cccc cccc cccc cccc ccccc ccccc ccccc ccccc
%c cc cc ccc ccc cccc cccc cccc cccc ccccc ccccc ccccc ccccc
%f  1.2500000  1.025000000  0.00000000000  0.000000000000000
%f  0.0000000  0.000000000  0.00000000000  0.000000000000000
%i    0    0    0    0      0      0      0      0         0
%i    0    0    0    0      0      0      0      0         0
/* CCCCCCCCCCCCCCCCCCCCCCCCCCCCCCCCCCCCCCCCCCCCCCCCCCCCCCCCC                    
/* CCCCCCCCCCCCCCCCCCCCCCCCCCCCCCCCCCCCCCCCCCCCCCCCCCCCCCCCC                    
/* CCCCCCCCCCCCCCCCCCCCCCCCCCCCCCCCCCCCCCCCCCCCCCCCCCCCCCCCC                    
/* PCV:igs_absolute_08.atx OL/AL:FES2004  YN ORB:CoN CLK:CoN                    
*  2020  2  2  9 45  0.00000000
PC01 -32278.720218  27122.936204    679.591825    153.208132
PC02   4355.904802  41906.859768  -1188.003209    571.264236
PC03 -14793.629886  39450.117401   -462.487187   -345.395670
PC04 -39630.537933  14450.655447    285.006183   -424.610353
PC05  21870.616342  35982.235848  -1384.643122   -278.719099
PC06  -9132.401776  37471.338986 -16217.768785    251.216388
PC07 -11837.851061  23437.467114  33151.928290     48.399555
PC08 -25080.174694  29793.379350 -16462.692273   -103.449372
PC09  -1892.421498  41677.548427  -4247.711155    305.145400
PC10   2301.236560  27800.916330  31873.996952   -620.300943
PC11  16277.535105  -8566.419199 -20903.626587   -157.631002
PC12  11797.133056  12674.417441 -21848.798146    314.841818
PC13 -12671.310217  30541.079786 -26216.035454    242.582013
PC14  20759.725508   1394.694143  18648.083666    125.522968
PC16  -7783.159034  38270.699592 -15625.080064   -805.805165
PE01 -29280.013448  -4316.502730   -718.436535   -786.348288
PE02  29274.886458   4261.914130    639.287396    109.947293
PE03  19435.106368   8704.453779  20559.489914   -261.788365
PE04 -12846.007575  12566.548924 -23520.534136   -457.709430
PE05  14697.954091  25094.287211   5514.293204   -408.863339
PE07  -1402.496694 -26717.105362  12657.842747   -335.353256
PE08  12519.626876 -12781.904755  23576.524901   6226.110646
PE09   1725.031674  26715.447127 -12643.373285   6169.272098
PE11  -9596.972582  25522.816956 -11493.206508   1072.706139
PE12 -20938.071590  19417.356588   7769.468085   5971.391526
PE13   9702.129231 -25580.483197  11320.218570    397.973526
PE14 -14804.626336    292.255188  18031.312193   -890.340230
PE15  20763.743465 -19697.115299  -7546.526464    878.707901
PE18  20715.923988   -227.981253 -25195.885497   -987.431509
PE19 -19400.306629 -10937.289467 -19501.160037     -1.706659
PE21 -18739.165664 -14369.965136 -17854.873408   -580.424487
PE24  -3097.993298  16155.342968  24596.541601   5631.328438
PE25  18630.718606  14406.510452  17930.572303   -502.824840
PE26  -7323.570169 -16381.546301  23552.984633   3576.311166
PE27   2902.779007 -16142.807187 -24638.709341    290.905788
PE30  22910.402838  -8265.974446 -16818.450604   4175.859792
PE31 -22770.191988   8433.819785  16937.068860   -471.552280
PE33 -19653.323363   2217.296467  22034.587176   -470.611472
PE36   7053.659716  16461.744670 -23552.980030    603.517710
PG01  -9836.091316  19508.204349 -15072.595465   -281.953216
PG02  21924.419276 -13865.252598  -4821.948750   -397.300523
PG03   1678.957099  16526.088169 -20801.415409    -85.360876
PG04  -1004.367099  26202.366242  -4148.500226    -43.078274
PG05  19266.779258  -5481.855831  17400.903160     -6.982107
PG06  21480.027071  -2875.087729 -15327.381584   -198.201409
PG07   7717.044739  13495.248257  21800.959490   -205.512000
PG08  -7163.323256  21246.888336  14075.664912    -22.339590
PG09   7061.060972  24948.695430   5666.767712   -146.411674
PG10 -24029.682976 -11556.401868   1206.740896   -231.029343
PG11 -10384.053959  24507.982548  -2799.998718   -372.744416
PG12   2768.550592 -15151.598909 -21885.165460    155.712977
PG13  12834.245718 -14287.270903  18187.690058    -15.738405
PG14 -15082.521445   -839.937656 -21521.461915    -35.012586
PG15   5152.963421 -22302.621046  12836.924606   -254.386445
PG16 -19724.153034   2545.794817  17623.116329   -120.086051
PG17  13250.506369  12365.970642 -19008.901698    209.154308
PG18 -15655.171941  20018.056039  -8063.716979      0.421250
PG19  14742.186904   3723.362474 -22069.461860   -204.206908
PG20 -18898.141475 -14662.748517  11672.839571    527.846751
PG21  -9979.714735 -12238.701496  22153.207883    -46.898920
PG22  -7177.829834  14142.088586 -21078.070395   -783.703269
PG23   1282.398357  26128.990785  -2817.847723   -139.084199
PG24  10483.729769 -20707.574616 -12767.203461     -8.448639
PG25 -11010.524033 -17674.259209 -16869.367096    -14.478822
PG26 -24607.189502  -2322.639629   9984.806621    140.001347
PG27 -12623.169123  11043.647274  20388.940571   -199.209081
PG28  23006.530866  13110.939200    259.514163    741.726544
PG29  -4422.355558 -25642.937403   5242.940642    -22.856953
PG30  17540.427919   5270.002922  19330.303870   -143.545402
PG31 -22922.904402   4547.953889 -13082.891649    -20.546313
PG32 -14798.767894 -10960.718227 -19124.239979    201.592181
PR01  15073.165461   3576.739052  20267.154554     56.478610
PR02   1358.472255 -14779.839045  20797.178549    409.953906
PR03 -11311.153005 -21540.336523   7784.297739      9.306563
PR04 -17427.673034 -15970.418345  -9569.147514     37.389533
PR05 -13617.735591  -1453.020245 -21518.388994     44.249939
PR07  11635.169445  21508.663229  -7151.659538    -32.740852
PR08  17451.620763  15936.348468   9629.525881    -50.337162
PR09  -9958.212833  11290.839193  20584.433480    114.642678
PR11  21976.454427   3549.607117  12501.689549    -12.103990
PR12  24754.276395  -4693.027071  -3864.319126    102.174152
PR13  13241.284265 -10736.935592 -18993.031346    -34.296284
PR14  -5822.453275 -10245.066694 -22613.952177     47.692434
PR15 -21436.370640  -3929.102334 -13246.212927    105.812890
PR16 -24638.378904   5369.249612   4246.509510     -1.298752
PR17   2185.064810 -21068.692334  14203.254248    297.539722
PR18  -7773.324082  -8036.953688  22954.038743     23.679956
PR19 -13801.226287   8762.499998  19588.519730    -77.079474
PR20 -12063.172111  22227.608112   3151.180528   -403.063065
PR21  -1777.089149  20659.046464 -14864.982229   -102.255452
PR22   9176.159036   5037.959373 -23245.445831    -12.348052
PR23  14131.204039 -14700.580792 -15328.105886    283.757465
EOF
